NORAD_CAT_ID,OBJECT_NAME,OBJECT_TYPE,EPOCH,MEAN_MOTION,ECCENTRICITY,INCLINATION,RA_OF_ASC_NODE,ARG_OF_PERICENTER,MEAN_ANOMALY,BSTAR,MEAN_MOTION_DOT,MEAN_MOTION_DDOT,TLE_LINE0,TLE_LINE1,TLE_LINE2,SEMIMAJOR_AXIS,PERIOD,APOGEE,PERIGEE,DECAYED
54169.0,STARLINK-5282,PAYLOAD,2022-11-03 14:00:01,15.877412,0.0020105,53.2173,111.842,197.0689,358.8874,-0.0046631,-0.01296894,0.00047137,0 STARLINK-5282,1 54169U 22141N   22307.58334491 -.01296894  47137-3 -46631-2 0  9994,2 54169  53.2173 111.8420 0020105 197.0689 358.8874 15.87741200  1057,6686.754,90.695,322.063,295.176,0.0
54169.0,STARLINK-5282,PAYLOAD,2022-11-03 22:00:00,15.86878089,0.0016725,53.2174,110.1596,205.3948,96.4557,-0.0049602,-0.01164518,0.0,0 STARLINK-5282,1 54169U 22141N   22307.91667824 -.01164518  00000-0 -49602-2 0  9993,2 54169  53.2174 110.1596 0016725 205.3948  96.4557 15.86878089  1304,6689.179,90.744,322.231,299.856,0.0
54169.0,STARLINK-5282,PAYLOAD,2022-11-04 06:00:00,15.86039703,0.0013831,53.2176,108.475,213.5067,193.1847,-0.0054026,-0.01204552,0.0,0 STARLINK-5282,1 54169U 22141N   22308.25001157 -.01204552  00000-0 -54026-2 0  9991,2 54169  53.2176 108.4750 0013831 213.5067 193.1847 15.86039703  1169,6691.536,90.792,322.656,304.146,0.0
54169.0,STARLINK-5282,PAYLOAD,2022-11-04 14:00:01,15.85146818,0.0011135,53.2176,106.7956,224.8697,285.6388,-0.0054397,-0.01161747,0.0,0 STARLINK-5282,1 54169U 22141N   22308.58334491 -.01161747  00000-0 -54397-2 0  9996,2 54169  53.2176 106.7956 0011135 224.8697 285.6388 15.85146818  1305,6694.0480000000025,90.843,323.367,308.46,0.0
54169.0,STARLINK-5282,PAYLOAD,2022-11-04 22:00:01,15.84280318,0.0009032,53.2173,105.1192,248.3902,4.9484,-0.0056893,-0.01183302,0.0,0 STARLINK-5282,1 54169U 22141N   22308.91668981 -.01183302  00000-0 -56893-2 0  9991,2 54169  53.2173 105.1192 0009032 248.3902   4.9484 15.84280318  1267,6696.489000000001,90.893,324.402,312.306,0.0
54169.0,STARLINK-5282,PAYLOAD,2022-11-05 12:00:00,15.82758643,0.0005256,53.2172,102.1861,267.1073,73.4986,-0.0061126,-0.01178175,0.0,0 STARLINK-5282,1 54169U 22141N   22309.50001157 -.01178175  00000-0 -61126-2 0  9990,2 54169  53.2172 102.1861 0005256 267.1073  73.4986 15.82758643  1366,6700.78,90.98,326.1670000000001,319.123,0.0
54169.0,STARLINK-5282,PAYLOAD,2022-11-05 14:00:01,15.82572099,0.0004401,53.2173,101.7686,270.2748,185.4576,-0.0064603,-0.01227236,0.0,0 STARLINK-5282,1 54169U 22141N   22309.58335648 -.01227236  00000-0 -64603-2 0  9999,2 54169  53.2173 101.7686 0004401 270.2748 185.4576 15.82572099  1304,6701.307,90.991,326.121,320.223,0.0
54169.0,STARLINK-5282,PAYLOAD,2022-11-05 20:00:01,15.81915609,0.000193,53.2177,100.5161,275.7363,164.7566,-0.0066081999999999,-0.01216339,0.0,0 STARLINK-5282,1 54169U 22141N   22309.83334491 -.01216339  00000-0 -66082-2 0  9997,2 54169  53.2177 100.5161 0001930 275.7363 164.7566 15.81915609  1418,6703.161,91.029,326.319,323.732,0.0
54169.0,STARLINK-5282,PAYLOAD,2022-11-05 22:00:01,15.81737519,0.0001614,53.217,100.0987,283.152,272.1977,-0.0069563,-0.01263283,0.0,0 STARLINK-5282,1 54169U 22141N   22309.91668981 -.01263283  00000-0 -69563-2 0  9997,2 54169  53.2170 100.0987 0001614 283.1520 272.1977 15.81737519  1309,6703.6640000000025,91.039,326.611,324.447,0.0
54169.0,STARLINK-5282,PAYLOAD,2022-11-06 14:00:01,15.79963141,0.0001072,53.2172,96.7608,52.6906,338.7577,-0.00722,-0.01213096,0.0,0 STARLINK-5282,1 54169U 22141N   22310.58334491 -.01213096  00000-0 -72200-2 0  9997,2 54169  53.2172  96.7608 0001072  52.6906 338.7577 15.79963141  1301,6708.682,91.141,331.266,329.8280000000001,0.0
54169.0,STARLINK-5282,PAYLOAD,2022-11-06 22:00:00,15.79071222,0.000128,53.2168,95.0974,50.6814,77.2839,-0.0072842,-0.01179018,0.0,0 STARLINK-5282,1 54169U 22141N   22310.91667824 -.01179018  00000-0 -72842-2 0  9990,2 54169  53.2168  95.0974 0001280  50.6814  77.2839 15.79071222  1587,6711.208000000001,91.193,333.932,332.214,0.0
54169.0,STARLINK-5282,PAYLOAD,2022-11-07 14:00:01,15.773551199999998,0.0001085,53.2174,91.7723,55.742,262.1011,-0.008071,-0.01205028,0.0,0 STARLINK-5282,1 54169U 22141N   22311.58334491 -.01205028  00000-0 -80710-2 0  9999,2 54169  53.2174  91.7723 0001085  55.7420 262.1011 15.77355120  1689,6716.075,91.292,338.668,337.211,0.0
54169.0,STARLINK-5282,PAYLOAD,2022-11-07 22:00:00,15.7648074,0.0001211,53.2171,90.1142,46.1344,5.0897,-0.008319,-0.01195573,0.0,0 STARLINK-5282,1 54169U 22141N   22311.91667824 -.01195573  00000-0 -83190-2 0  9993,2 54169  53.2171  90.1142 0001211  46.1344   5.0897 15.76480740  1305,6718.558000000001,91.343,341.236,339.6090000000001,0.0
54169.0,STARLINK-5282,PAYLOAD,2022-11-08 06:00:00,15.75609588,0.0001491,53.2171,88.4559,41.4643,102.0977,-0.0086091,-0.01190996,0.0,0 STARLINK-5282,1 54169U 22141N   22312.25001157 -.01190996  00000-0 -86091-2 0  9999,2 54169  53.2171  88.4559 0001491  41.4643 102.0977 15.75609588  1799,6721.034000000002,91.393,343.901,341.897,0.0
54169.0,STARLINK-5282,PAYLOAD,2022-11-08 14:00:01,15.74760021,0.0001334,53.2172,86.803,51.1776,183.6676,-0.0091587,-0.0121695,0.0,0 STARLINK-5282,1 54169U 22141N   22312.58334491 -.01216950  00000-0 -91587-2 0  9990,2 54169  53.2172  86.8030 0001334  51.1776 183.6676 15.74760021  1304,6723.451,91.443,346.213,344.4190000000001,0.0
54169.0,STARLINK-5282,PAYLOAD,2022-11-08 22:00:00,15.73743992,0.0001392,53.2169,85.1518,39.2506,285.8628,-0.004857,-0.00647258,0.0,0 STARLINK-5282,1 54169U 22141N   22312.91667824 -.00647258  00000-0 -48570-2 0  9998,2 54169  53.2169  85.1518 0001392  39.2506 285.8628 15.73743992  1898,6726.345,91.502,349.146,347.273,0.0
54169.0,STARLINK-5282,PAYLOAD,2022-11-09 04:00:00,15.73239067,0.0001513,53.2175,83.9118,40.2703,261.8984,-0.00041438,-0.00058471,0.0,0 STARLINK-5282,1 54169U 22141N   22313.16667824 -.00058471  00000-0 -41438-3 0  9996,2 54169  53.2175  83.9118 0001513  40.2703 261.8984 15.73239067  1930,6727.784000000002,91.531,350.667,348.631,0.0
54169.0,STARLINK-5282,PAYLOAD,2022-11-09 14:00:01,15.73287167,0.0001644,53.2172,81.8546,36.2138,107.0181,-0.00040714,-0.00057585,0.0,0 STARLINK-5282,1 54169U 22141N   22313.58334491 -.00057585  00000-0 -40714-3 0  9994,2 54169  53.2172  81.8546 0001644  36.2138 107.0181 15.73287167  1306,6727.647,91.528,350.61800000000005,348.406,0.0
54169.0,STARLINK-5282,PAYLOAD,2022-11-09 22:00:01,15.73234459,0.0001732,53.2169,80.2053,31.1045,201.1948,-0.00026784,-0.00038097,0.0,0 STARLINK-5282,1 54169U 22141N   22313.91668981 -.00038097  00000-0 -26784-3 0  9993,2 54169  53.2169  80.2053 0001732  31.1045 201.1948 15.73234459  2053,6727.797,91.531,350.827,348.497,0.0
54169.0,STARLINK-5282,PAYLOAD,2022-11-10 14:00:01,15.73201593,0.0001743,53.2173,76.9066,31.7156,18.392,-0.00058148,-0.00081451,0.0,0 STARLINK-5282,1 54169U 22141N   22314.58334491 -.00081451  00000-0 -58148-3 0  9994,2 54169  53.2173  76.9066 0001743  31.7156  18.3920 15.73201593  1303,6727.891,91.533,350.92800000000005,348.583,0.0
54169.0,STARLINK-5282,PAYLOAD,2022-11-10 20:00:01,15.73287107,0.0001753,53.2169,75.6672,28.9294,357.8733,-0.00080853,-0.00113007,0.0,0 STARLINK-5282,1 54169U 22141N   22314.83334491 -.00113007  00000-0 -80853-3 0  9993,2 54169  53.2169  75.6672 0001753  28.9294 357.8733 15.73287107  2207,6727.647,91.528,350.691,348.332,0.0
54169.0,STARLINK-5282,PAYLOAD,2022-11-10 22:00:00,15.73257533,0.0001746,53.2169,75.2538,29.6378,109.4234,-0.00059993,-0.0008419,0.0,0 STARLINK-5282,1 54169U 22141N   22314.91667824 -.00084190  00000-0 -59993-3 0  9992,2 54169  53.2169  75.2538 0001746  29.6378 109.4234 15.73257533  1304,6727.731,91.53,350.771,348.421,0.0
54169.0,STARLINK-5282,PAYLOAD,2022-11-11 06:00:00,15.7320372,0.0001615,53.2172,73.6014,34.0502,193.9737,5.3888e-06,1.36e-06,0.0,0 STARLINK-5282,1 54169U 22141N   22315.25001157  .00000136  00000-0  53888-5 0  9996,2 54169  53.2172  73.6014 0001615  34.0502 193.9737 15.73203720  2264,6727.885,91.533,350.836,348.663,0.0
54169.0,STARLINK-5282,PAYLOAD,2022-11-11 14:00:01,15.73225887,0.000217,53.2178,71.9581,36.2968,280.7199,4.9015e-05,6.271e-05,0.0,0 STARLINK-5282,1 54169U 22141N   22315.58334491  .00006271  00000-0  49015-4 0  9994,2 54169  53.2178  71.9581 0002170  36.2968 280.7199 15.73225887  2318,6727.821,91.532,351.146,348.226,0.0
54169.0,STARLINK-5282,PAYLOAD,2022-11-11 22:00:00,15.73241156,0.0002149,53.2174,70.3086,31.0525,14.9374,-2.2264e-05,-3.751e-05,0.0,0 STARLINK-5282,1 54169U 22141N   22315.91667824 -.00003751  00000-0 -22264-4 0  9999,2 54169  53.2174  70.3086 0002149  31.0525  14.9374 15.73241156  1302,6727.778,91.531,351.089,348.19699999999995,0.0
54169.0,STARLINK-5282,PAYLOAD,2022-11-12 14:00:01,15.73273697,0.0002046,53.2176,67.0101,24.156,199.7791,-0.0004004,-0.0005662,0.0,0 STARLINK-5282,1 54169U 22141N   22316.58334491 -.00056620  00000-0 -40040-3 0  9998,2 54169  53.2176  67.0101 0002046  24.1560 199.7791 15.73273697  1303,6727.685,91.529,350.927,348.1740000000001,0.0
54169.0,STARLINK-5282,PAYLOAD,2022-11-12 22:00:00,15.73261025,0.0002106,53.2177,65.3601,21.9063,291.0175,-0.00089221,-0.00124342,0.0,0 STARLINK-5282,1 54169U 22141N   22316.91667824 -.00124342  00000-0 -89221-3 0  9995,2 54169  53.2177  65.3601 0002106  21.9063 291.0175 15.73261025  2529,6727.721,91.53,351.00300000000016,348.1690000000001,0.0
54169.0,STARLINK-5282,PAYLOAD,2022-11-13 14:00:01,15.73094637,0.0002365,53.2179,62.0617,26.0081,104.7282,-0.00019864,-0.00028283,0.0,0 STARLINK-5282,1 54169U 22141N   22317.58334491 -.00028283  00000-0 -19864-3 0  9993,2 54169  53.2179  62.0617 0002365  26.0081 104.7282 15.73094637  2639,6728.196,91.539,351.652,348.469,0.0
54169.0,STARLINK-5282,PAYLOAD,2022-11-13 22:00:00,15.73104853,0.0002353,53.2175,60.4121,23.7742,195.7463,0.00020163,0.00027657,0.0,0 STARLINK-5282,1 54169U 22141N   22317.91667824  .00027657  00000-0  20163-3 0  9995,2 54169  53.2175  60.4121 0002353  23.7742 195.7463 15.73104853  2680,6728.166,91.539,351.615,348.4480000000001,0.0
